{
  "type": "FeatureCollection",
  "features": [
    {
      "type": "Feature",
      "properties": {
        "name": "Johor"
      },
      "geometry": {
        "type": "Polygon",
        "coordinates": [
          [
            [
              103.436,
              1.353
            ],
            [
              103.502,
              1.431
            ],
            [
              103.628,
              1.441
            ],
            [
              103.762,
              1.428
            ],
            [
              103.952,
              1.467
            ],
            [
              104.025,
              1.501
            ],
            [
              104.122,
              1.574
            ],
            [
              104.181,
              1.636
            ],
            [
              104.212,
              1.762
            ],
            [
              104.238,
              1.897
            ],
            [
              104.249,
              2.017
            ],
            [
              104.218,
              2.091
            ],
            [
              104.147,
              2.164
            ],
            [
              104.0,
              2.226
            ],
            [
              103.834,
              2.274
            ],
            [
              103.586,
              2.296
            ],
            [
              103.448,
              2.342
            ],
            [
              103.362,
              2.411
            ],
            [
              103.264,
              2.471
            ],
            [
              103.133,
              2.518
            ],
            [
              102.982,
              2.546
            ],
            [
              102.856,
              2.554
            ],
            [
              102.704,
              2.543
            ],
            [
              102.569,
              2.497
            ],
            [
              102.456,
              2.424
            ],
            [
              102.329,
              2.332
            ],
            [
              102.182,
              2.231
            ],
            [
              102.064,
              2.097
            ],
            [
              101.998,
              1.983
            ],
            [
              101.962,
              1.842
            ],
            [
              101.926,
              1.712
            ],
            [
              101.873,
              1.613
            ],
            [
              101.803,
              1.521
            ],
            [
              101.724,
              1.473
            ],
            [
              101.756,
              1.389
            ],
            [
              101.843,
              1.328
            ],
            [
              101.951,
              1.285
            ],
            [
              102.079,
              1.252
            ],
            [
              102.238,
              1.248
            ],
            [
              102.403,
              1.263
            ],
            [
              102.578,
              1.298
            ],
            [
              102.742,
              1.315
            ],
            [
              102.903,
              1.308
            ],
            [
              103.046,
              1.286
            ],
            [
              103.184,
              1.279
            ],
            [
              103.313,
              1.29
            ],
            [
              103.436,
              1.353
            ]
          ]
        ]
      }
    },
    {
      "type": "Feature",
      "properties": {
        "name": "Kedah"
      },
      "geometry": {
        "type": "Polygon",
        "coordinates": [
          [
            [
              100.198,
              6.421
            ],
            [
              100.312,
              6.514
            ],
            [
              100.431,
              6.553
            ],
            [
              100.562,
              6.531
            ],
            [
              100.672,
              6.482
            ],
            [
              100.749,
              6.424
            ],
            [
              100.836,
              6.393
            ],
            [
              100.984,
              6.389
            ],
            [
              101.098,
              6.412
            ],
            [
              101.189,
              6.448
            ],
            [
              101.241,
              6.524
            ],
            [
              101.218,
              6.611
            ],
            [
              101.176,
              6.721
            ],
            [
              101.164,
              6.853
            ],
            [
              101.189,
              6.977
            ],
            [
              101.233,
              7.064
            ],
            [
              101.221,
              7.121
            ],
            [
              101.102,
              7.063
            ],
            [
              100.962,
              6.994
            ],
            [
              100.817,
              6.939
            ],
            [
              100.663,
              6.892
            ],
            [
              100.512,
              6.843
            ],
            [
              100.352,
              6.811
            ],
            [
              100.199,
              6.773
            ],
            [
              100.082,
              6.722
            ],
            [
              100.001,
              6.654
            ],
            [
              99.942,
              6.566
            ],
            [
              99.883,
              6.472
            ],
            [
              99.856,
              6.388
            ],
            [
              99.852,
              6.291
            ],
            [
              99.871,
              6.206
            ],
            [
              99.908,
              6.142
            ],
            [
              99.972,
              6.103
            ],
            [
              100.062,
              6.121
            ],
            [
              100.142,
              6.189
            ],
            [
              100.198,
              6.421
            ]
          ]
        ]
      }
    },
    {
      "type": "Feature",
      "properties": {
        "name": "Kelantan"
      },
      "geometry": {
        "type": "Polygon",
        "coordinates": [
          [
            [
              101.512,
              4.556
            ],
            [
              101.613,
              4.621
            ],
            [
              101.742,
              4.672
            ],
            [
              101.892,
              4.698
            ],
            [
              102.043,
              4.692
            ],
            [
              102.178,
              4.663
            ],
            [
              102.312,
              4.613
            ],
            [
              102.441,
              4.574
            ],
            [
              102.564,
              4.566
            ],
            [
              102.681,
              4.584
            ],
            [
              102.791,
              4.632
            ],
            [
              102.878,
              4.702
            ],
            [
              102.914,
              4.789
            ],
            [
              102.894,
              4.876
            ],
            [
              102.831,
              4.948
            ],
            [
              102.754,
              5.016
            ],
            [
              102.701,
              5.097
            ],
            [
              102.681,
              5.182
            ],
            [
              102.693,
              5.267
            ],
            [
              102.739,
              5.349
            ],
            [
              102.789,
              5.434
            ],
            [
              102.796,
              5.521
            ],
            [
              102.758,
              5.602
            ],
            [
              102.679,
              5.668
            ],
            [
              102.572,
              5.716
            ],
            [
              102.441,
              5.744
            ],
            [
              102.296,
              5.748
            ],
            [
              102.149,
              5.726
            ],
            [
              102.004,
              5.681
            ],
            [
              101.862,
              5.621
            ],
            [
              101.728,
              5.551
            ],
            [
              101.604,
              5.474
            ],
            [
              101.493,
              5.386
            ],
            [
              101.396,
              5.289
            ],
            [
              101.318,
              5.182
            ],
            [
              101.264,
              5.067
            ],
            [
              101.237,
              4.946
            ],
            [
              101.24,
              4.823
            ],
            [
              101.273,
              4.706
            ],
            [
              101.334,
              4.613
            ],
            [
              101.416,
              4.568
            ],
            [
              101.512,
              4.556
            ]
          ]
        ]
      }
    },
    {
      "type": "Feature",
      "properties": {
        "name": "Melaka"
      },
      "geometry": {
        "type": "Polygon",
        "coordinates": [
          [
            [
              102.243,
              2.142
            ],
            [
              102.312,
              2.196
            ],
            [
              102.394,
              2.228
            ],
            [
              102.487,
              2.239
            ],
            [
              102.572,
              2.221
            ],
            [
              102.634,
              2.178
            ],
            [
              102.671,
              2.118
            ],
            [
              102.678,
              2.051
            ],
            [
              102.656,
              1.987
            ],
            [
              102.61,
              1.936
            ],
            [
              102.544,
              1.903
            ],
            [
              102.466,
              1.891
            ],
            [
              102.386,
              1.901
            ],
            [
              102.313,
              1.934
            ],
            [
              102.256,
              1.983
            ],
            [
              102.218,
              2.044
            ],
            [
              102.214,
              2.108
            ],
            [
              102.243,
              2.142
            ]
          ]
        ]
      }
    },
    {
      "type": "Feature",
      "properties": {
        "name": "Negeri Sembilan"
      },
      "geometry": {
        "type": "Polygon",
        "coordinates": [
          [
            [
              102.138,
              2.542
            ],
            [
              102.213,
              2.596
            ],
            [
              102.298,
              2.631
            ],
            [
              102.393,
              2.643
            ],
            [
              102.483,
              2.631
            ],
            [
              102.564,
              2.596
            ],
            [
              102.632,
              2.543
            ],
            [
              102.689,
              2.478
            ],
            [
              102.723,
              2.403
            ],
            [
              102.729,
              2.324
            ],
            [
              102.706,
              2.247
            ],
            [
              102.658,
              2.181
            ],
            [
              102.593,
              2.128
            ],
            [
              102.516,
              2.093
            ],
            [
              102.432,
              2.079
            ],
            [
              102.347,
              2.087
            ],
            [
              102.268,
              2.118
            ],
            [
              102.2,
              2.168
            ],
            [
              102.152,
              2.233
            ],
            [
              102.127,
              2.306
            ],
            [
              102.128,
              2.382
            ],
            [
              102.154,
              2.451
            ],
            [
              102.138,
              2.542
            ]
          ]
        ]
      }
    },
    {
      "type": "Feature",
      "properties": {
        "name": "Pahang"
      },
      "geometry": {
        "type": "Polygon",
        "coordinates": [
          [
            [
              102.684,
              4.586
            ],
            [
              102.772,
              4.618
            ],
            [
              102.873,
              4.631
            ],
            [
              102.978,
              4.624
            ],
            [
              103.082,
              4.598
            ],
            [
              103.178,
              4.554
            ],
            [
              103.264,
              4.496
            ],
            [
              103.341,
              4.427
            ],
            [
              103.413,
              4.352
            ],
            [
              103.481,
              4.273
            ],
            [
              103.543,
              4.189
            ],
            [
              103.589,
              4.098
            ],
            [
              103.614,
              4.001
            ],
            [
              103.614,
              3.902
            ],
            [
              103.591,
              3.806
            ],
            [
              103.547,
              3.716
            ],
            [
              103.484,
              3.636
            ],
            [
              103.408,
              3.568
            ],
            [
              103.319,
              3.512
            ],
            [
              103.222,
              3.472
            ],
            [
              103.118,
              3.447
            ],
            [
              103.011,
              3.437
            ],
            [
              102.902,
              3.444
            ],
            [
              102.793,
              3.468
            ],
            [
              102.688,
              3.507
            ],
            [
              102.588,
              3.56
            ],
            [
              102.494,
              3.626
            ],
            [
              102.408,
              3.703
            ],
            [
              102.333,
              3.788
            ],
            [
              102.269,
              3.879
            ],
            [
              102.215,
              3.975
            ],
            [
              102.173,
              4.073
            ],
            [
              102.143,
              4.174
            ],
            [
              102.127,
              4.277
            ],
            [
              102.127,
              4.381
            ],
            [
              102.143,
              4.483
            ],
            [
              102.178,
              4.577
            ],
            [
              102.231,
              4.658
            ],
            [
              102.301,
              4.721
            ],
            [
              102.385,
              4.761
            ],
            [
              102.476,
              4.776
            ],
            [
              102.568,
              4.764
            ],
            [
              102.652,
              4.725
            ],
            [
              102.684,
              4.586
            ]
          ]
        ]
      }
    },
    {
      "type": "Feature",
      "properties": {
        "name": "Perak"
      },
      "geometry": {
        "type": "Polygon",
        "coordinates": [
          [
            [
              100.563,
              4.846
            ],
            [
              100.648,
              4.901
            ],
            [
              100.748,
              4.934
            ],
            [
              100.856,
              4.944
            ],
            [
              100.963,
              4.929
            ],
            [
              101.062,
              4.891
            ],
            [
              101.147,
              4.832
            ],
            [
              101.216,
              4.756
            ],
            [
              101.266,
              4.667
            ],
            [
              101.293,
              4.568
            ],
            [
              101.294,
              4.467
            ],
            [
              101.271,
              4.369
            ],
            [
              101.226,
              4.279
            ],
            [
              101.163,
              4.2
            ],
            [
              101.086,
              4.133
            ],
            [
              100.998,
              4.081
            ],
            [
              100.902,
              4.044
            ],
            [
              100.803,
              4.022
            ],
            [
              100.702,
              4.018
            ],
            [
              100.601,
              4.031
            ],
            [
              100.502,
              4.061
            ],
            [
              100.408,
              4.109
            ],
            [
              100.322,
              4.172
            ],
            [
              100.246,
              4.248
            ],
            [
              100.182,
              4.334
            ],
            [
              100.131,
              4.427
            ],
            [
              100.096,
              4.524
            ],
            [
              100.079,
              4.624
            ],
            [
              100.08,
              4.725
            ],
            [
              100.101,
              4.823
            ],
            [
              100.141,
              4.913
            ],
            [
              100.199,
              4.991
            ],
            [
              100.274,
              5.053
            ],
            [
              100.364,
              5.098
            ],
            [
              100.462,
              5.124
            ],
            [
              100.562,
              5.129
            ],
            [
              100.657,
              5.113
            ],
            [
              100.744,
              5.077
            ],
            [
              100.563,
              4.846
            ]
          ]
        ]
      }
    },
    {
      "type": "Feature",
      "properties": {
        "name": "Perlis"
      },
      "geometry": {
        "type": "Polygon",
        "coordinates": [
          [
            [
              100.198,
              6.421
            ],
            [
              100.142,
              6.189
            ],
            [
              100.062,
              6.121
            ],
            [
              99.972,
              6.103
            ],
            [
              99.908,
              6.142
            ],
            [
              99.871,
              6.206
            ],
            [
              99.852,
              6.291
            ],
            [
              99.856,
              6.388
            ],
            [
              99.883,
              6.472
            ],
            [
              99.942,
              6.566
            ],
            [
              100.001,
              6.654
            ],
            [
              100.082,
              6.722
            ],
            [
              100.199,
              6.773
            ],
            [
              100.198,
              6.421
            ]
          ]
        ]
      }
    },
    {
      "type": "Feature",
      "properties": {
        "name": "Pulau Pinang"
      },
      "geometry": {
        "type": "Polygon",
        "coordinates": [
          [
            [
              100.198,
              5.524
            ],
            [
              100.271,
              5.567
            ],
            [
              100.357,
              5.583
            ],
            [
              100.441,
              5.569
            ],
            [
              100.512,
              5.527
            ],
            [
              100.562,
              5.463
            ],
            [
              100.582,
              5.388
            ],
            [
              100.567,
              5.313
            ],
            [
              100.52,
              5.249
            ],
            [
              100.45,
              5.203
            ],
            [
              100.368,
              5.179
            ],
            [
              100.281,
              5.181
            ],
            [
              100.201,
              5.208
            ],
            [
              100.136,
              5.257
            ],
            [
              100.094,
              5.323
            ],
            [
              100.079,
              5.398
            ],
            [
              100.092,
              5.474
            ],
            [
              100.132,
              5.538
            ],
            [
              100.198,
              5.524
            ]
          ]
        ]
      }
    },
    {
      "type": "Feature",
      "properties": {
        "name": "Sabah"
      },
      "geometry": {
        "type": "Polygon",
        "coordinates": [
          [
            [
              116.983,
              4.412
            ],
            [
              117.132,
              4.478
            ],
            [
              117.288,
              4.524
            ],
            [
              117.448,
              4.541
            ],
            [
              117.608,
              4.527
            ],
            [
              117.761,
              4.484
            ],
            [
              117.898,
              4.414
            ],
            [
              118.012,
              4.321
            ],
            [
              118.098,
              4.211
            ],
            [
              118.153,
              4.089
            ],
            [
              118.173,
              3.96
            ],
            [
              118.156,
              3.832
            ],
            [
              118.104,
              3.712
            ],
            [
              118.02,
              3.604
            ],
            [
              117.908,
              3.513
            ],
            [
              117.776,
              3.443
            ],
            [
              117.632,
              3.397
            ],
            [
              117.481,
              3.377
            ],
            [
              117.328,
              3.385
            ],
            [
              117.179,
              3.421
            ],
            [
              117.039,
              3.483
            ],
            [
              116.912,
              3.568
            ],
            [
              116.803,
              3.671
            ],
            [
              116.714,
              3.787
            ],
            [
              116.649,
              3.91
            ],
            [
              116.61,
              4.036
            ],
            [
              116.6,
              4.161
            ],
            [
              116.621,
              4.282
            ],
            [
              116.673,
              4.392
            ],
            [
              116.754,
              4.481
            ],
            [
              116.862,
              4.541
            ],
            [
              116.983,
              4.412
            ]
          ]
        ]
      }
    },
    {
      "type": "Feature",
      "properties": {
        "name": "Sarawak"
      },
      "geometry": {
        "type": "Polygon",
        "coordinates": [
          [
            [
              109.883,
              1.012
            ],
            [
              110.012,
              1.089
            ],
            [
              110.156,
              1.143
            ],
            [
              110.311,
              1.171
            ],
            [
              110.468,
              1.171
            ],
            [
              110.623,
              1.143
            ],
            [
              110.769,
              1.088
            ],
            [
              110.897,
              1.009
            ],
            [
              110.999,
              0.909
            ],
            [
              111.067,
              0.794
            ],
            [
              111.098,
              0.668
            ],
            [
              111.089,
              0.54
            ],
            [
              111.041,
              0.416
            ],
            [
              110.957,
              0.302
            ],
            [
              110.843,
              0.203
            ],
            [
              110.705,
              0.124
            ],
            [
              110.551,
              0.069
            ],
            [
              110.387,
              0.042
            ],
            [
              110.222,
              0.046
            ],
            [
              110.062,
              0.081
            ],
            [
              109.913,
              0.147
            ],
            [
              109.782,
              0.24
            ],
            [
              109.674,
              0.355
            ],
            [
              109.594,
              0.485
            ],
            [
              109.545,
              0.623
            ],
            [
              109.531,
              0.764
            ],
            [
              109.552,
              0.902
            ],
            [
              109.607,
              1.032
            ],
            [
              109.693,
              1.147
            ],
            [
              109.883,
              1.012
            ]
          ]
        ]
      }
    },
    {
      "type": "Feature",
      "properties": {
        "name": "Selangor"
      },
      "geometry": {
        "type": "Polygon",
        "coordinates": [
          [
            [
              101.316,
              3.036
            ],
            [
              101.408,
              3.082
            ],
            [
              101.509,
              3.106
            ],
            [
              101.613,
              3.106
            ],
            [
              101.712,
              3.082
            ],
            [
              101.799,
              3.036
            ],
            [
              101.868,
              2.972
            ],
            [
              101.913,
              2.894
            ],
            [
              101.932,
              2.807
            ],
            [
              101.921,
              2.718
            ],
            [
              101.882,
              2.636
            ],
            [
              101.818,
              2.564
            ],
            [
              101.736,
              2.506
            ],
            [
              101.641,
              2.465
            ],
            [
              101.54,
              2.443
            ],
            [
              101.438,
              2.442
            ],
            [
              101.339,
              2.462
            ],
            [
              101.247,
              2.503
            ],
            [
              101.167,
              2.562
            ],
            [
              101.102,
              2.637
            ],
            [
              101.056,
              2.722
            ],
            [
              101.03,
              2.813
            ],
            [
              101.025,
              2.907
            ],
            [
              101.04,
              2.998
            ],
            [
              101.074,
              3.082
            ],
            [
              101.127,
              3.155
            ],
            [
              101.196,
              3.213
            ],
            [
              101.279,
              3.253
            ],
            [
              101.316,
              3.036
            ]
          ]
        ]
      }
    },
    {
      "type": "Feature",
      "properties": {
        "name": "Terengganu"
      },
      "geometry": {
        "type": "Polygon",
        "coordinates": [
          [
            [
              102.914,
              4.789
            ],
            [
              103.001,
              4.852
            ],
            [
              103.098,
              4.896
            ],
            [
              103.202,
              4.919
            ],
            [
              103.307,
              4.919
            ],
            [
              103.408,
              4.896
            ],
            [
              103.499,
              4.851
            ],
            [
              103.574,
              4.787
            ],
            [
              103.628,
              4.706
            ],
            [
              103.659,
              4.614
            ],
            [
              103.663,
              4.515
            ],
            [
              103.639,
              4.421
            ],
            [
              103.59,
              4.337
            ],
            [
              103.52,
              4.264
            ],
            [
              103.432,
              4.206
            ],
            [
              103.332,
              4.165
            ],
            [
              103.226,
              4.141
            ],
            [
              103.117,
              4.136
            ],
            [
              103.009,
              4.15
            ],
            [
              102.905,
              4.183
            ],
            [
              102.809,
              4.233
            ],
            [
              102.724,
              4.299
            ],
            [
              102.654,
              4.378
            ],
            [
              102.6,
              4.465
            ],
            [
              102.565,
              4.558
            ],
            [
              102.55,
              4.653
            ],
            [
              102.557,
              4.748
            ],
            [
              102.586,
              4.836
            ],
            [
              102.638,
              4.912
            ],
            [
              102.708,
              4.972
            ],
            [
              102.793,
              5.012
            ],
            [
              102.887,
              5.031
            ],
            [
              102.981,
              5.028
            ],
            [
              103.072,
              5.003
            ],
            [
              103.154,
              4.957
            ],
            [
              103.221,
              4.891
            ],
            [
              103.271,
              4.812
            ],
            [
              103.299,
              4.726
            ],
            [
              103.302,
              4.638
            ],
            [
              103.28,
              4.552
            ],
            [
              102.914,
              4.789
            ]
          ]
        ]
      }
    },
    {
      "type": "Feature",
      "properties": {
        "name": "W.P. Kuala Lumpur"
      },
      "geometry": {
        "type": "Polygon",
        "coordinates": [
          [
            [
              101.636,
              3.216
            ],
            [
              101.664,
              3.232
            ],
            [
              101.695,
              3.239
            ],
            [
              101.727,
              3.237
            ],
            [
              101.756,
              3.226
            ],
            [
              101.779,
              3.207
            ],
            [
              101.792,
              3.183
            ],
            [
              101.794,
              3.156
            ],
            [
              101.786,
              3.13
            ],
            [
              101.768,
              3.108
            ],
            [
              101.742,
              3.091
            ],
            [
              101.713,
              3.081
            ],
            [
              101.682,
              3.079
            ],
            [
              101.652,
              3.085
            ],
            [
              101.625,
              3.098
            ],
            [
              101.605,
              3.118
            ],
            [
              101.594,
              3.143
            ],
            [
              101.593,
              3.17
            ],
            [
              101.601,
              3.195
            ],
            [
              101.618,
              3.209
            ],
            [
              101.636,
              3.216
            ]
          ]
        ]
      }
    },
    {
      "type": "Feature",
      "properties": {
        "name": "W.P. Labuan"
      },
      "geometry": {
        "type": "Polygon",
        "coordinates": [
          [
            [
              115.193,
              5.312
            ],
            [
              115.221,
              5.327
            ],
            [
              115.251,
              5.334
            ],
            [
              115.282,
              5.332
            ],
            [
              115.31,
              5.321
            ],
            [
              115.332,
              5.302
            ],
            [
              115.345,
              5.277
            ],
            [
              115.347,
              5.25
            ],
            [
              115.338,
              5.224
            ],
            [
              115.32,
              5.202
            ],
            [
              115.294,
              5.186
            ],
            [
              115.264,
              5.178
            ],
            [
              115.233,
              5.179
            ],
            [
              115.204,
              5.189
            ],
            [
              115.18,
              5.207
            ],
            [
              115.163,
              5.231
            ],
            [
              115.156,
              5.258
            ],
            [
              115.159,
              5.285
            ],
            [
              115.172,
              5.308
            ],
            [
              115.193,
              5.312
            ]
          ]
        ]
      }
    },
    {
      "type": "Feature",
      "properties": {
        "name": "W.P. Putrajaya"
      },
      "geometry": {
        "type": "Polygon",
        "coordinates": [
          [
            [
              101.672,
              2.922
            ],
            [
              101.692,
              2.934
            ],
            [
              101.714,
              2.938
            ],
            [
              101.737,
              2.934
            ],
            [
              101.756,
              2.922
            ],
            [
              101.769,
              2.904
            ],
            [
              101.773,
              2.883
            ],
            [
              101.768,
              2.862
            ],
            [
              101.754,
              2.845
            ],
            [
              101.734,
              2.833
            ],
            [
              101.711,
              2.829
            ],
            [
              101.688,
              2.833
            ],
            [
              101.668,
              2.845
            ],
            [
              101.654,
              2.863
            ],
            [
              101.65,
              2.884
            ],
            [
              101.655,
              2.905
            ],
            [
              101.672,
              2.922
            ]
          ]
        ]
      }
    }
  ]
}